[{"OBJECT_NAME":"ONEWEB-0112","OBJECT_ID":"2021-025K","EPOCH":"2026-03-09T18:34:42.900096","MEAN_MOTION":13.13470547,"ECCENTRICITY":0.00019708,"INCLINATION":87.9046,"RA_OF_ASC_NODE":339.9771,"ARG_OF_PERICENTER":80.1831,"MEAN_ANOMALY":279.9521,"EPHEMERIS_TYPE":0,"CLASSIFICATION_TYPE":"U","NORAD_CAT_ID":48051,"ELEMENT_SET_NO":999,"REV_AT_EPOCH":24054,"BSTAR":-0.00062367503,"MEAN_MOTION_DOT":-2.15e-6,"MEAN_MOTION_DDOT":0},{"OBJECT_NAME":"SL-14 DEB","OBJECT_ID":"1991-056DG","EPOCH":"2026-03-09T03:45:27.615168","MEAN_MOTION":13.11658689,"ECCENTRICITY":0.00382754,"INCLINATION":82.6145,"RA_OF_ASC_NODE":240.7072,"ARG_OF_PERICENTER":167.8252,"MEAN_ANOMALY":192.3802,"EPHEMERIS_TYPE":0,"CLASSIFICATION_TYPE":"U","NORAD_CAT_ID":47082,"ELEMENT_SET_NO":999,"REV_AT_EPOCH":25556,"BSTAR":0.0033210461,"MEAN_MOTION_DOT":1.198e-5,"MEAN_MOTION_DDOT":0}]
